     2.10           NAVIGATION DATA     GPS(GPS)            RINEX VERSION / TYPE
cnvtToRINEX 2.11.0  Stan Thomas         26-Mar-11 14:09 UTC PGM / RUN BY / DATE 
----------------------------------------------------------- COMMENT             
    0.1676D-07  0.7451D-08 -0.1192D-06 -0.5960D-07          ION ALPHA           
    0.1106D+06  0.1638D+05 -0.2621D+06 -0.6554D+05          ION BETA            
    0.000000000000D+00-0.888178419700D-15   589824       92 DELTA-UTC: A0,A1,T,W
    15                                                      LEAP SECONDS        
                                                            END OF HEADER       
29 11  3 24 18  0  0.0 0.194773077965D-03 0.284217094304D-11 0.000000000000D+00
    0.150000000000D+02-0.781250000000D+01 0.476484133191D-08-0.533407864659D+00
   -0.365078449249D-06 0.268933433108D-02 0.665150582790D-05 0.515354651260D+04
    0.410400000000D+06-0.726431608200D-07-0.750883039761D+00 0.260770320892D-07
    0.961414210875D+00 0.252656250000D+03-0.125606379475D+01-0.812640992616D-08
    0.230009580822D-09 0.100000000000D+01 0.162800000000D+04 0.000000000000D+00
    0.240000000000D+01 0.000000000000D+00-0.884756445885D-08 0.150000000000D+02
    0.403758000000D+06 0.400000000000D+01 0.000000000000D+00 0.000000000000D+00
30 11  3 24 16  0  0.0 0.331677496433D-03 0.295585778076D-11 0.000000000000D+00
    0.810000000000D+02-0.587812500000D+02 0.435196699118D-08 0.161178124952D+01
   -0.314973294735D-05 0.125755701447D-01 0.969134271145D-05 0.515365996552D+04
    0.403200000000D+06 0.000000000000D+00-0.187818549431D+01-0.309199094772D-06
    0.959597908842D+00 0.193656250000D+03 0.151929178984D+01-0.795533137148D-08
    0.414660129402D-09 0.100000000000D+01 0.162800000000D+04 0.000000000000D+00
    0.340000000000D+01 0.000000000000D+00-0.791624188423D-08 0.810000000000D+02
    0.396018000000D+06 0.400000000000D+01 0.000000000000D+00 0.000000000000D+00
29 11  3 24 17 59 44.0 0.194771680981D-03 0.284217094304D-11 0.000000000000D+00
    0.500000000000D+01-0.781250000000D+01 0.476484133191D-08-0.535741975324D+00
   -0.365078449249D-06 0.268933468033D-02 0.665150582790D-05 0.515354651070D+04
    0.410384000000D+06-0.726431608200D-07-0.750882890544D+00 0.260770320892D-07
    0.961414222579D+00 0.252656250000D+03-0.125606360457D+01-0.812640992616D-08
    0.230009580822D-09 0.100000000000D+01 0.162800000000D+04 0.000000000000D+00
    0.240000000000D+01 0.000000000000D+00-0.884756445885D-08 0.500000000000D+01
    0.404376000000D+06 0.400000000000D+01 0.000000000000D+00 0.000000000000D+00
19 11  3 24 18  0  0.0-0.123453792185D-03-0.386535248253D-11 0.000000000000D+00
    0.440000000000D+02-0.162187500000D+02 0.485627371186D-08 0.220357810998D+01
   -0.812113285065D-06 0.711755105294D-02 0.650249421597D-05 0.515362941551D+04
    0.410400000000D+06-0.409781932831D-07-0.705020692565D+00 0.141561031342D-06
    0.958552557322D+00 0.252000000000D+03-0.939481455459D-02-0.811248077453D-08
    0.172507185617D-09 0.100000000000D+01 0.162800000000D+04 0.000000000000D+00
    0.240000000000D+01 0.000000000000D+00-0.149011611938D-07 0.440000000000D+02
    0.404658000000D+06 0.400000000000D+01 0.000000000000D+00 0.000000000000D+00
 6 11  3 24 17 59 44.0-0.145995989442D-03-0.121644916362D-09 0.000000000000D+00
    0.460000000000D+02-0.646875000000D+01 0.530772108789D-08-0.251425135303D+01
   -0.100582838058D-06 0.659855257254D-02 0.643357634544D-05 0.515364310265D+04
    0.410384000000D+06 0.931322574615D-08-0.840957403103D+00 0.128522515297D-06
    0.935565740171D+00 0.240187500000D+03-0.839915574289D+00-0.830534595100D-08
    0.326799326789D-09 0.100000000000D+01 0.162800000000D+04 0.000000000000D+00
    0.240000000000D+01 0.000000000000D+00-0.465661287308D-08 0.460000000000D+02
    0.406998000000D+06 0.400000000000D+01 0.000000000000D+00 0.000000000000D+00
 3 11  3 24 17 59 44.0 0.692750327289D-03 0.511590769747D-11 0.000000000000D+00
    0.290000000000D+02-0.118750000000D+02 0.552380151708D-08 0.169231278611D+01
   -0.732019543648D-06 0.140323993983D-01 0.677071511745D-05 0.515364275551D+04
    0.410384000000D+06-0.262632966042D-06-0.914096843894D+00-0.197440385818D-06
    0.928356586670D+00 0.233812500000D+03 0.107892293882D+01-0.854464163291D-08
    0.347157317639D-09 0.100000000000D+01 0.162800000000D+04 0.000000000000D+00
    0.240000000000D+01 0.000000000000D+00-0.419095158577D-08 0.290000000000D+02
    0.407148000000D+06 0.400000000000D+01 0.000000000000D+00 0.000000000000D+00
 9 11  3 24 17 59 28.0 0.696084462106D-04 0.238742359215D-11 0.000000000000D+00
    0.440000000000D+02-0.612187500000D+02 0.405981196461D-08-0.655883533028D+00
   -0.314041972160D-05 0.171311881859D-01 0.599212944508D-05 0.515367808914D+04
    0.410368000000D+06-0.216066837311D-06-0.290351156929D+01 0.614672899246D-07
    0.983348053239D+00 0.276156250000D+03 0.155843707114D+01-0.827177312398D-08
   -0.132148361653D-09 0.100000000000D+01 0.162800000000D+04 0.000000000000D+00
    0.240000000000D+01 0.000000000000D+00-0.558793544769D-08 0.440000000000D+02
    0.408768000000D+06 0.400000000000D+01 0.000000000000D+00 0.000000000000D+00
19 11  3 24 20  0  0.0-0.123481266201D-03-0.386535248253D-11 0.000000000000D+00
    0.530000000000D+02-0.115000000000D+02 0.478627079596D-08-0.302934497405D+01
   -0.469386577606D-06 0.711824849714D-02 0.679492950439D-05 0.515362793541D+04
    0.417600000000D+06-0.707805156708D-07-0.705079038126D+00 0.204890966415D-07
    0.958554387432D+00 0.248937500000D+03-0.944618346003D-02-0.802176271004D-08
    0.222152110670D-09 0.100000000000D+01 0.162800000000D+04 0.000000000000D+00
    0.240000000000D+01 0.000000000000D+00-0.149011611938D-07 0.530000000000D+02
    0.410418000000D+06 0.400000000000D+01 0.000000000000D+00 0.000000000000D+00
 9 11  3 24 19 59 28.0 0.696252100170D-04 0.238742359215D-11 0.000000000000D+00
    0.450000000000D+02-0.596875000000D+02 0.414874424042D-08 0.394299075202D+00
   -0.310689210892D-05 0.171297906199D-01 0.565126538277D-05 0.515367543411D+04
    0.417568000000D+06-0.180676579475D-06-0.290357070190D+01-0.987201929092D-07
    0.983346865350D+00 0.286593750000D+03 0.155842978434D+01-0.828248785601D-08
   -0.235366946835D-09 0.100000000000D+01 0.162800000000D+04 0.000000000000D+00
    0.240000000000D+01 0.000000000000D+00-0.558793544769D-08 0.450000000000D+02
    0.410418000000D+06 0.400000000000D+01 0.000000000000D+00 0.000000000000D+00
27 11  3 24 20  0  0.0 0.248823780566D-03 0.375166564481D-11 0.000000000000D+00
    0.710000000000D+02-0.644687500000D+02 0.397873715894D-08-0.278224932856D+01
   -0.317394733429D-05 0.216850026045D-01 0.467523932457D-05 0.515370083237D+04
    0.417600000000D+06 0.180676579475D-06-0.292932413121D+01 0.249594449997D-06
    0.980940033027D+00 0.293968750000D+03-0.127489040789D+01-0.761210278892D-08
   -0.860750139413D-10 0.100000000000D+01 0.162800000000D+04 0.000000000000D+00
    0.240000000000D+01 0.000000000000D+00-0.419095158577D-08 0.710000000000D+02
    0.410418000000D+06 0.400000000000D+01 0.000000000000D+00 0.000000000000D+00
22 11  3 24 20  0  0.0 0.151312910020D-03-0.454747350886D-12 0.000000000000D+00
    0.131000000000D+03 0.830312500000D+02 0.507771150707D-08-0.178456822426D+01
    0.433996319771D-05 0.543356698472D-02 0.825710594654D-05 0.515371391106D+04
    0.417600000000D+06 0.128522515297D-06 0.132764710764D+01 0.465661287308D-07
    0.931272047813D+00 0.203687500000D+03-0.196435948398D+01-0.821891377932D-08
   -0.114290474943D-10 0.100000000000D+01 0.162800000000D+04 0.000000000000D+00
    0.340000000000D+01 0.000000000000D+00-0.172294676304D-07 0.131000000000D+03
    0.410418000000D+06 0.400000000000D+01 0.000000000000D+00 0.000000000000D+00
18 11  3 24 20  0  0.0 0.128220766783D-03 0.204636307899D-11 0.000000000000D+00
    0.110000000000D+03 0.805937500000D+02 0.509164065870D-08-0.986284090325D+00
    0.438094139099D-05 0.120226029539D-01 0.803358852863D-05 0.515377544022D+04
    0.417600000000D+06 0.186264514923D-06 0.132338447742D+01 0.257045030594D-06
    0.933578921869D+00 0.210937500000D+03-0.226922727854D+01-0.835749098019D-08
   -0.492877673191D-10 0.100000000000D+01 0.162800000000D+04 0.000000000000D+00
    0.240000000000D+01 0.000000000000D+00-0.107102096081D-07 0.110000000000D+03
    0.410418000000D+06 0.400000000000D+01 0.000000000000D+00 0.000000000000D+00
21 11  3 24 20  0  0.0-0.132669694722D-03-0.261479726760D-11 0.000000000000D+00
    0.180000000000D+02-0.262500000000D+01 0.535879464388D-08 0.294129011791D+00
    0.223517417908D-07 0.174984246260D-01 0.843591988087D-05 0.515377389526D+04
    0.417600000000D+06-0.819563865662D-07 0.268830371533D+00 0.312924385071D-06
    0.932271795788D+00 0.203875000000D+03-0.239012957412D+01-0.857964309086D-08
   -0.318227541169D-09 0.100000000000D+01 0.162800000000D+04 0.000000000000D+00
    0.240000000000D+01 0.000000000000D+00-0.116415321827D-07 0.180000000000D+02
    0.410418000000D+06 0.400000000000D+01 0.000000000000D+00 0.000000000000D+00
15 11  3 24 20  0  0.0-0.140693970025D-03 0.306954461848D-11 0.000000000000D+00
    0.440000000000D+02 0.548125000000D+02 0.498485049617D-08-0.311493509995D+01
    0.288151204586D-05 0.340066803619D-02 0.384636223316D-05 0.515358922577D+04
    0.417600000000D+06-0.819563865662D-07 0.233543661453D+01 0.242143869400D-07
    0.950457339209D+00 0.300156250000D+03-0.695934092906D-01-0.837677749783D-08
    0.103575742917D-10 0.100000000000D+01 0.162800000000D+04 0.000000000000D+00
    0.240000000000D+01 0.000000000000D+00-0.977888703346D-08 0.440000000000D+02
    0.410418000000D+06 0.400000000000D+01 0.000000000000D+00 0.000000000000D+00
